start=new Date('2023-07-04T00:00:00.000Z').valueOf();
sats=[{"NORAD_CAT_ID":"47181","MEAN_ELEMENT_THEORY":"SGP4","INCLINATION":"53.0526","OBJECT_NAME":"STARLINK-1927","DECAY_DATE":null,"BSTAR":"0.00176590000000","RA_OF_ASC_NODE":"353.2735","APOAPSIS":"503.702","EPHEMERIS_TYPE":"0","TLE_LINE2":"2 47181  53.0526 353.2735 0001835 151.4376 208.6720 15.21127818144758","CLASSIFICATION_TYPE":"U","OBJECT_ID":"2020-088BM","OBJECT_TYPE":"PAYLOAD","COUNTRY_CODE":"US","EPOCH":"2023-07-03T11:14:17.920608","MEAN_MOTION_DOT":"0.00039694","CENTER_NAME":"EARTH","LAUNCH_DATE":"2020-11-25","PERIAPSIS":"501.177","MEAN_MOTION_DDOT":"0.0000000000000","MEAN_ANOMALY":"208.6720","SEMIMAJOR_AXIS":"6880.575","ELEMENT_SET_NO":"999","MEAN_MOTION":"15.21127818","ECCENTRICITY":"0.00018350","SITE":"AFETR","TIME_SYSTEM":"UTC","PERIOD":"94.667","ARG_OF_PERICENTER":"151.4376","REF_FRAME":"TEME","GP_ID":"234690942","TLE_LINE1":"1 47181U 20088BM  23184.46826297  .00039694  00000-0  17659-2 0  9992","REV_AT_EPOCH":"14475","RCS_SIZE":"LARGE","FILE":"3948408"},{"ELEMENT_SET_NO":"999","SEMIMAJOR_AXIS":"6925.369","MEAN_MOTION":"15.06393327","MEAN_MOTION_DDOT":"0.0000000000000","MEAN_ANOMALY":"266.8515","EPOCH":"2023-07-03T14:36:25.130880","LAUNCH_DATE":"2021-01-20","PERIAPSIS":"546.310","MEAN_MOTION_DOT":"-0.00002605","CENTER_NAME":"EARTH","OBJECT_TYPE":"PAYLOAD","COUNTRY_CODE":"US","FILE":"3948860","RCS_SIZE":"LARGE","TLE_LINE1":"1 47350U 21005B   23184.60862420 -.00002605  00000-0 -15606-3 0  9999","REV_AT_EPOCH":"13599","REF_FRAME":"TEME","GP_ID":"234700169","ECCENTRICITY":"0.00013340","TIME_SYSTEM":"UTC","PERIOD":"95.593","ARG_OF_PERICENTER":"93.2626","SITE":"AFETR","OBJECT_NAME":"STARLINK-2011","DECAY_DATE":null,"NORAD_CAT_ID":"47350","MEAN_ELEMENT_THEORY":"SGP4","INCLINATION":"53.0522","TLE_LINE2":"2 47350  53.0522 141.3701 0001334  93.2626 266.8515 15.06393327135993","EPHEMERIS_TYPE":"0","OBJECT_ID":"2021-005B","CLASSIFICATION_TYPE":"U","RA_OF_ASC_NODE":"141.3701","APOAPSIS":"548.158","BSTAR":"-0.00015606000000"},{"EPHEMERIS_TYPE":"0","TLE_LINE2":"2 47351  53.0532 101.8306 0001249  99.8018 260.3112 15.06400100136529","OBJECT_ID":"2021-005C","CLASSIFICATION_TYPE":"U","RA_OF_ASC_NODE":"101.8306","APOAPSIS":"548.078","BSTAR":"0.00056225000000","OBJECT_NAME":"STARLINK-2017","DECAY_DATE":null,"NORAD_CAT_ID":"47351","MEAN_ELEMENT_THEORY":"SGP4","INCLINATION":"53.0532","FILE":"3948860","REV_AT_EPOCH":"13652","TLE_LINE1":"1 47351U 21005C   23184.50448141  .00008103  00000-0  56225-3 0  9998","RCS_SIZE":"LARGE","REF_FRAME":"TEME","GP_ID":"234700174","ECCENTRICITY":"0.00012490","SITE":"AFETR","PERIOD":"95.592","TIME_SYSTEM":"UTC","ARG_OF_PERICENTER":"99.8018","SEMIMAJOR_AXIS":"6925.348","ELEMENT_SET_NO":"999","MEAN_MOTION":"15.06400100","MEAN_MOTION_DDOT":"0.0000000000000","MEAN_ANOMALY":"260.3112","EPOCH":"2023-07-03T12:06:27.193824","CENTER_NAME":"EARTH","MEAN_MOTION_DOT":"0.00008103","LAUNCH_DATE":"2021-01-20","PERIAPSIS":"546.348","OBJECT_TYPE":"PAYLOAD","COUNTRY_CODE":"US"},{"TLE_LINE1":"1 47352U 21005D   23184.05941738  .00000581  00000-0  57870-4 0  9999","RCS_SIZE":"LARGE","REV_AT_EPOCH":"13589","FILE":"3948058","SITE":"AFETR","TIME_SYSTEM":"UTC","PERIOD":"95.592","ARG_OF_PERICENTER":"105.0977","ECCENTRICITY":"0.00012330","GP_ID":"234682859","REF_FRAME":"TEME","MEAN_ANOMALY":"255.0148","MEAN_MOTION_DDOT":"0.0000000000000","MEAN_MOTION":"15.06405571","ELEMENT_SET_NO":"999","SEMIMAJOR_AXIS":"6925.331","COUNTRY_CODE":"US","OBJECT_TYPE":"PAYLOAD","CENTER_NAME":"EARTH","MEAN_MOTION_DOT":"0.00000581","PERIAPSIS":"546.343","LAUNCH_DATE":"2021-01-20","EPOCH":"2023-07-03T01:25:33.661632","CLASSIFICATION_TYPE":"U","OBJECT_ID":"2021-005D","EPHEMERIS_TYPE":"0","TLE_LINE2":"2 47352  53.0546 143.8366 0001233 105.0977 255.0148 15.06405571135890","BSTAR":"0.00005787000000","APOAPSIS":"548.050","RA_OF_ASC_NODE":"143.8366","OBJECT_NAME":"STARLINK-2034","DECAY_DATE":null,"INCLINATION":"53.0546","NORAD_CAT_ID":"47352","MEAN_ELEMENT_THEORY":"SGP4"},{"RA_OF_ASC_NODE":"85.7625","APOAPSIS":"548.115","BSTAR":"0.00043412000000","EPHEMERIS_TYPE":"0","TLE_LINE2":"2 47353  53.0544  85.7625 0001324  84.6661 275.4479 15.06404985136773","CLASSIFICATION_TYPE":"U","OBJECT_ID":"2021-005E","MEAN_ELEMENT_THEORY":"SGP4","NORAD_CAT_ID":"47353","INCLINATION":"53.0544","DECAY_DATE":null,"OBJECT_NAME":"STARLINK-2045","REF_FRAME":"TEME","GP_ID":"234696798","ECCENTRICITY":"0.00013240","SITE":"AFETR","PERIOD":"95.592","TIME_SYSTEM":"UTC","ARG_OF_PERICENTER":"84.6661","FILE":"3948744","REV_AT_EPOCH":"13677","TLE_LINE1":"1 47353U 21005E   23184.74455834  .00006191  00000-0  43412-3 0  9992","RCS_SIZE":"LARGE","EPOCH":"2023-07-03T17:52:09.840576","MEAN_MOTION_DOT":"0.00006191","CENTER_NAME":"EARTH","PERIAPSIS":"546.281","LAUNCH_DATE":"2021-01-20","OBJECT_TYPE":"PAYLOAD","COUNTRY_CODE":"US","SEMIMAJOR_AXIS":"6925.333","ELEMENT_SET_NO":"999","MEAN_MOTION":"15.06404985","MEAN_MOTION_DDOT":"0.0000000000000","MEAN_ANOMALY":"275.4479"},{"MEAN_ANOMALY":"263.6917","MEAN_MOTION_DDOT":"0.0000000000000","MEAN_MOTION":"15.06411785","SEMIMAJOR_AXIS":"6925.312","ELEMENT_SET_NO":"999","COUNTRY_CODE":"US","OBJECT_TYPE":"PAYLOAD","PERIAPSIS":"546.596","LAUNCH_DATE":"2021-01-20","MEAN_MOTION_DOT":"0.00007575","CENTER_NAME":"EARTH","EPOCH":"2023-07-03T11:48:33.818976","RCS_SIZE":"LARGE","TLE_LINE1":"1 47354U 21005F   23184.49205809  .00007575  00000-0  52672-3 0  9995","REV_AT_EPOCH":"13645","FILE":"3948360","PERIOD":"95.591","TIME_SYSTEM":"UTC","ARG_OF_PERICENTER":"96.4168","SITE":"AFETR","ECCENTRICITY":"0.00008400","GP_ID":"234690351","REF_FRAME":"TEME","DECAY_DATE":null,"OBJECT_NAME":"STARLINK-2046","INCLINATION":"53.0531","NORAD_CAT_ID":"47354","MEAN_ELEMENT_THEORY":"SGP4","CLASSIFICATION_TYPE":"U","OBJECT_ID":"2021-005F","TLE_LINE2":"2 47354  53.0531 106.8950 0000840  96.4168 263.6917 15.06411785136458","EPHEMERIS_TYPE":"0","BSTAR":"0.00052672000000","APOAPSIS":"547.759","RA_OF_ASC_NODE":"106.8950"},{"ECCENTRICITY":"0.00013060","PERIOD":"95.592","ARG_OF_PERICENTER":"73.5997","TIME_SYSTEM":"UTC","SITE":"AFETR","REF_FRAME":"TEME","GP_ID":"234689854","RCS_SIZE":"LARGE","TLE_LINE1":"1 47355U 21005G   23184.44737648  .00007974  00000-0  55353-3 0  9994","REV_AT_EPOCH":"13665","FILE":"3948360","OBJECT_TYPE":"PAYLOAD","COUNTRY_CODE":"US","EPOCH":"2023-07-03T10:44:13.327872","LAUNCH_DATE":"2021-01-20","PERIAPSIS":"546.300","MEAN_MOTION_DOT":"0.00007974","CENTER_NAME":"EARTH","MEAN_MOTION_DDOT":"0.0000000000000","MEAN_ANOMALY":"286.5136","ELEMENT_SET_NO":"999","SEMIMAJOR_AXIS":"6925.339","MEAN_MOTION":"15.06403062","BSTAR":"0.00055353000000","RA_OF_ASC_NODE":"92.0978","APOAPSIS":"548.109","TLE_LINE2":"2 47355  53.0539  92.0978 0001306  73.5997 286.5136 15.06403062136655","EPHEMERIS_TYPE":"0","OBJECT_ID":"2021-005G","CLASSIFICATION_TYPE":"U","NORAD_CAT_ID":"47355","MEAN_ELEMENT_THEORY":"SGP4","INCLINATION":"53.0539","DECAY_DATE":null,"OBJECT_NAME":"STARLINK-2047"},{"RA_OF_ASC_NODE":"111.8902","APOAPSIS":"548.108","BSTAR":"0.00055710000000","TLE_LINE2":"2 47356  53.0541 111.8902 0001342  90.7787 269.3356 15.06411488136670","EPHEMERIS_TYPE":"0","OBJECT_ID":"2021-005H","CLASSIFICATION_TYPE":"U","MEAN_ELEMENT_THEORY":"SGP4","NORAD_CAT_ID":"47356","INCLINATION":"53.0541","DECAY_DATE":null,"OBJECT_NAME":"STARLINK-2049","REF_FRAME":"TEME","GP_ID":"234689850","ECCENTRICITY":"0.00013420","TIME_SYSTEM":"UTC","PERIOD":"95.591","ARG_OF_PERICENTER":"90.7787","SITE":"AFETR","FILE":"3948360","TLE_LINE1":"1 47356U 21005H   23184.49344131  .00008029  00000-0  55710-3 0  9990","REV_AT_EPOCH":"13667","RCS_SIZE":"LARGE","EPOCH":"2023-07-03T11:50:33.329184","LAUNCH_DATE":"2021-01-20","PERIAPSIS":"546.249","CENTER_NAME":"EARTH","MEAN_MOTION_DOT":"0.00008029","OBJECT_TYPE":"PAYLOAD","COUNTRY_CODE":"US","ELEMENT_SET_NO":"999","SEMIMAJOR_AXIS":"6925.313","MEAN_MOTION":"15.06411488","MEAN_MOTION_DDOT":"0.0000000000000","MEAN_ANOMALY":"269.3356"},{"INCLINATION":"53.0540","NORAD_CAT_ID":"47357","MEAN_ELEMENT_THEORY":"SGP4","DECAY_DATE":null,"OBJECT_NAME":"STARLINK-2050","APOAPSIS":"548.225","RA_OF_ASC_NODE":"143.6387","BSTAR":"0.00018389000000","OBJECT_ID":"2021-005J","CLASSIFICATION_TYPE":"U","EPHEMERIS_TYPE":"0","TLE_LINE2":"2 47357  53.0540 143.6387 0001430  91.6252 268.4900 15.06393121136190","CENTER_NAME":"EARTH","MEAN_MOTION_DOT":"0.00002458","PERIAPSIS":"546.244","LAUNCH_DATE":"2021-01-20","EPOCH":"2023-07-03T02:29:15.355680","COUNTRY_CODE":"US","OBJECT_TYPE":"PAYLOAD","MEAN_MOTION":"15.06393121","ELEMENT_SET_NO":"999","SEMIMAJOR_AXIS":"6925.370","MEAN_ANOMALY":"268.4900","MEAN_MOTION_DDOT":"0.0000000000000","GP_ID":"234682238","REF_FRAME":"TEME","SITE":"AFETR","ARG_OF_PERICENTER":"91.6252","PERIOD":"95.593","TIME_SYSTEM":"UTC","ECCENTRICITY":"0.00014300","FILE":"3948050","REV_AT_EPOCH":"13619","TLE_LINE1":"1 47357U 21005J   23184.10364995  .00002458  00000-0  18389-3 0  9990","RCS_SIZE":"LARGE"},{"DECAY_DATE":null,"OBJECT_NAME":"STARLINK-2055","INCLINATION":"53.0542","MEAN_ELEMENT_THEORY":"SGP4","NORAD_CAT_ID":"47358","OBJECT_ID":"2021-005K","CLASSIFICATION_TYPE":"U","EPHEMERIS_TYPE":"0","TLE_LINE2":"2 47358  53.0542 111.8365 0001287  87.0947 273.0189 15.06395784136677","APOAPSIS":"548.118","RA_OF_ASC_NODE":"111.8365","BSTAR":"0.00052367000000","MEAN_MOTION":"15.06395784","ELEMENT_SET_NO":"999","SEMIMAJOR_AXIS":"6925.361","MEAN_ANOMALY":"273.0189","MEAN_MOTION_DDOT":"0.0000000000000","MEAN_MOTION_DOT":"0.00007526","CENTER_NAME":"EARTH","LAUNCH_DATE":"2021-01-20","PERIAPSIS":"546.335","EPOCH":"2023-07-03T12:05:07.698048","COUNTRY_CODE":"US","OBJECT_TYPE":"PAYLOAD","FILE":"3948755","REV_AT_EPOCH":"13667","TLE_LINE1":"1 47358U 21005K   23184.50356132  .00007526  00000-0  52367-3 0  9994","RCS_SIZE":"LARGE","GP_ID":"234696945","REF_FRAME":"TEME","SITE":"AFETR","ARG_OF_PERICENTER":"87.0947","PERIOD":"95.592","TIME_SYSTEM":"UTC","ECCENTRICITY":"0.00012870"}];
